IRIDIUM 144             
1 43249U 18030A   25341.22763232  .00000343  00000+0  11557-3 0  9997
2 43249  86.3969  10.6504 0002297  96.9359 263.2098 14.34217027402627
IRIDIUM 149             
1 43250U 18030B   25341.09443591  .00000268  00000+0  88737-4 0  9998
2 43250  86.3965  10.6755 0002184  94.0660 266.0786 14.34216248402621
IRIDIUM 157             
1 43251U 18030C   25341.32276691  .00000259  00000+0  85501-4 0  9996
2 43251  86.3972  10.6288 0002293  88.9527 271.1931 14.34220315402636
IRIDIUM 140             
1 43252U 18030D   25341.06272498  .00000372  00000+0  12582-3 0  9993
2 43252  86.3966  10.7501 0002255  98.1319 262.0133 14.34216988402655
IRIDIUM 145             
1 43253U 18030E   25341.32911365  .00000130  00000+0  39277-4 0  9999
2 43253  86.3967  10.6129 0002282  96.3194 263.8262 14.34215238402629
IRIDIUM 146             
1 43254U 18030F   25341.10077921  .00000050  00000+0  10895-4 0  9993
2 43254  86.3973  10.7204 0002285  97.0615 263.0841 14.34218232402601
IRIDIUM 148             
1 43255U 18030G   25341.06906588  .00000260  00000+0  85606-4 0  9994
2 43255  86.3972  10.7736 0002148  90.1938 269.9504 14.34217652402630
IRIDIUM 142             
1 43256U 18030H   25341.03735445  .00000274  00000+0  90847-4 0  9992
2 43256  86.3969  10.6825 0002479 101.4661 258.6813 14.34216574402596
